ONEWEB-0421             
1 50496U 21132AD  26047.29420604  .00000054  00000+0  10399-3 0  9992
2 50496  87.9240 359.4569 0001685  74.7757 285.3562 13.18684451205687
ONEWEB-0424             
1 50497U 21132AE  26047.25462495  .00000021  00000+0  20852-4 0  9993
2 50497  87.9239 359.4609 0002192  85.5390 274.5992 13.18685142205706
ONEWEB-0426             
1 50498U 21132AF  26047.29090819  .00000143  00000+0  33118-3 0  9998
2 50498  87.9236 359.4462 0002009  60.4627 299.6705 13.18684554205653
ONEWEB-0427             
1 50499U 21132AG  26047.25297515  .00000102  00000+0  22708-3 0  9995
2 50499  87.9238 359.4394 0002113  76.4950 283.6418 13.18685314205673
ONEWEB-0429             
1 50500U 21132AH  26047.23976775  .00000050  00000+0  93737-4 0  9991
2 50500  87.9239 359.4750 0001775  82.8317 277.3017 13.18684360205646
ONEWEB-0430             
1 50501U 21132AJ  26047.22823659 -.00000104  00000+0 -29595-3 0  9995
2 50501  87.9241 359.4733 0001951  89.5127 270.6229 13.18684150205682
ONEWEB-0432             
1 50502U 21132AK  26047.26074895  .00000031  00000+0  46592-4 0  9994
2 50502  87.9237 359.4358 0002586  80.6491 279.4933 13.18643072205645
ONEWEB-0440             
1 50503U 21132AL  26047.24801913  .00000007  00000+0 -14159-4 0  9990
2 50503  87.9236 359.4594 0001462  78.6575 281.4722 13.18684878205636
ONEWEB-0450             
1 50504U 21132AM  26046.86217203  .00000037  00000+0  60407-4 0  9990
2 50504  87.9228 359.5534 0001770  89.4790 270.6545 13.18684335205613
ONEWEB-0410             
1 51622U 22012A   26046.94722516  .00000039  00000+0  67762-4 0  9990
2 51622  87.9123  29.9277 0002807  58.7670 301.3736 13.17648367197730
ONEWEB-0411             
1 51623U 22012B   26047.06271204 -.00000615  00000+0 -17990-2 0  9996
2 51623  87.8750  60.3930 0002193 104.0504 256.0867 13.10372896193427
ONEWEB-0415             
1 51624U 22012C   26047.05938899 -.00000646  00000+0 -18870-2 0  9998
2 51624  87.8750  60.3968 0002073  97.4387 262.6976 13.10371868193422
ONEWEB-0416             
1 51625U 22012D   26047.07101476 -.00000410  00000+0 -12096-2 0  9997
2 51625  87.8756  60.4150 0002340  92.8180 267.3215 13.10374438193468
ONEWEB-0422             
1 51626U 22012E   26046.95733392  .00000093  00000+0  20570-3 0  9994
2 51626  87.9122  29.9279 0001374 106.8823 253.2459 13.17647843197845
ONEWEB-0423             
1 51627U 22012F   26046.95058939  .00000057  00000+0  11438-3 0  9995
2 51627  87.9123  29.9392 0001780  84.9255 275.2080 13.17649392197732
ONEWEB-0425             
1 51628U 22012G   26047.08098690  .00000065  00000+0  14901-3 0  9996
2 51628  87.8762  60.3888 0001960  80.3069 279.8280 13.10375323193464
ONEWEB-0428             
1 51629U 22012H   26047.06104860 -.00000543  00000+0 -15912-2 0  9997
2 51629  87.8752  60.4080 0001855  91.4712 268.6628 13.10372476193424
