[{"OBJECT_NAME":"ONEWEB-0421","OBJECT_ID":"2021-132AD","EPOCH":"2026-02-16T07:03:39.401856","MEAN_MOTION":13.18684451,"ECCENTRICITY":0.00016855,"INCLINATION":87.924,"RA_OF_ASC_NODE":359.4569,"ARG_OF_PERICENTER":74.7757,"MEAN_ANOMALY":285.3562,"EPHEMERIS_TYPE":0,"CLASSIFICATION_TYPE":"U","NORAD_CAT_ID":50496,"ELEMENT_SET_NO":999,"REV_AT_EPOCH":20568,"BSTAR":0.00010398595,"MEAN_MOTION_DOT":5.4e-7,"MEAN_MOTION_DDOT":0},{"OBJECT_NAME":"ONEWEB-0424","OBJECT_ID":"2021-132AE","EPOCH":"2026-02-16T06:06:39.595680","MEAN_MOTION":13.18685142,"ECCENTRICITY":0.00021925,"INCLINATION":87.9239,"RA_OF_ASC_NODE":359.4609,"ARG_OF_PERICENTER":85.539,"MEAN_ANOMALY":274.5992,"EPHEMERIS_TYPE":0,"CLASSIFICATION_TYPE":"U","NORAD_CAT_ID":50497,"ELEMENT_SET_NO":999,"REV_AT_EPOCH":20570,"BSTAR":2.0851755e-5,"MEAN_MOTION_DOT":2.1e-7,"MEAN_MOTION_DDOT":0},{"OBJECT_NAME":"ONEWEB-0426","OBJECT_ID":"2021-132AF","EPOCH":"2026-02-16T06:58:54.467616","MEAN_MOTION":13.18684554,"ECCENTRICITY":0.00020091,"INCLINATION":87.9236,"RA_OF_ASC_NODE":359.4462,"ARG_OF_PERICENTER":60.4627,"MEAN_ANOMALY":299.6705,"EPHEMERIS_TYPE":0,"CLASSIFICATION_TYPE":"U","NORAD_CAT_ID":50498,"ELEMENT_SET_NO":999,"REV_AT_EPOCH":20565,"BSTAR":0.00033117581,"MEAN_MOTION_DOT":1.43e-6,"MEAN_MOTION_DDOT":0},{"OBJECT_NAME":"ONEWEB-0427","OBJECT_ID":"2021-132AG","EPOCH":"2026-02-16T06:04:17.052960","MEAN_MOTION":13.18685314,"ECCENTRICITY":0.0002113,"INCLINATION":87.9238,"RA_OF_ASC_NODE":359.4394,"ARG_OF_PERICENTER":76.495,"MEAN_ANOMALY":283.6418,"EPHEMERIS_TYPE":0,"CLASSIFICATION_TYPE":"U","NORAD_CAT_ID":50499,"ELEMENT_SET_NO":999,"REV_AT_EPOCH":20567,"BSTAR":0.00022707874,"MEAN_MOTION_DOT":1.02e-6,"MEAN_MOTION_DDOT":0},{"OBJECT_NAME":"ONEWEB-0429","OBJECT_ID":"2021-132AH","EPOCH":"2026-02-16T05:45:15.933600","MEAN_MOTION":13.1868436,"ECCENTRICITY":0.00017753,"INCLINATION":87.9239,"RA_OF_ASC_NODE":359.475,"ARG_OF_PERICENTER":82.8317,"MEAN_ANOMALY":277.3017,"EPHEMERIS_TYPE":0,"CLASSIFICATION_TYPE":"U","NORAD_CAT_ID":50500,"ELEMENT_SET_NO":999,"REV_AT_EPOCH":20564,"BSTAR":9.3737094e-5,"MEAN_MOTION_DOT":5.0e-7,"MEAN_MOTION_DDOT":0},{"OBJECT_NAME":"ONEWEB-0430","OBJECT_ID":"2021-132AJ","EPOCH":"2026-02-16T05:28:39.641376","MEAN_MOTION":13.1868415,"ECCENTRICITY":0.00019518,"INCLINATION":87.9241,"RA_OF_ASC_NODE":359.4733,"ARG_OF_PERICENTER":89.5127,"MEAN_ANOMALY":270.6229,"EPHEMERIS_TYPE":0,"CLASSIFICATION_TYPE":"U","NORAD_CAT_ID":50501,"ELEMENT_SET_NO":999,"REV_AT_EPOCH":20568,"BSTAR":-0.00029595412,"MEAN_MOTION_DOT":-1.04e-6,"MEAN_MOTION_DDOT":0},{"OBJECT_NAME":"ONEWEB-0432","OBJECT_ID":"2021-132AK","EPOCH":"2026-02-16T06:15:28.709280","MEAN_MOTION":13.18643072,"ECCENTRICITY":0.00025869,"INCLINATION":87.9237,"RA_OF_ASC_NODE":359.4358,"ARG_OF_PERICENTER":80.6491,"MEAN_ANOMALY":279.4933,"EPHEMERIS_TYPE":0,"CLASSIFICATION_TYPE":"U","NORAD_CAT_ID":50502,"ELEMENT_SET_NO":999,"REV_AT_EPOCH":20564,"BSTAR":4.6591684e-5,"MEAN_MOTION_DOT":3.1e-7,"MEAN_MOTION_DDOT":0},{"OBJECT_NAME":"ONEWEB-0440","OBJECT_ID":"2021-132AL","EPOCH":"2026-02-16T05:57:08.852832","MEAN_MOTION":13.18684878,"ECCENTRICITY":0.00014624,"INCLINATION":87.9236,"RA_OF_ASC_NODE":359.4594,"ARG_OF_PERICENTER":78.6575,"MEAN_ANOMALY":281.4722,"EPHEMERIS_TYPE":0,"CLASSIFICATION_TYPE":"U","NORAD_CAT_ID":50503,"ELEMENT_SET_NO":999,"REV_AT_EPOCH":20563,"BSTAR":-1.4159101e-5,"MEAN_MOTION_DOT":7.0e-8,"MEAN_MOTION_DDOT":0},{"OBJECT_NAME":"ONEWEB-0450","OBJECT_ID":"2021-132AM","EPOCH":"2026-02-15T20:41:31.663392","MEAN_MOTION":13.18684335,"ECCENTRICITY":0.000177,"INCLINATION":87.9228,"RA_OF_ASC_NODE":359.5534,"ARG_OF_PERICENTER":89.479,"MEAN_ANOMALY":270.6545,"EPHEMERIS_TYPE":0,"CLASSIFICATION_TYPE":"U","NORAD_CAT_ID":50504,"ELEMENT_SET_NO":999,"REV_AT_EPOCH":20561,"BSTAR":6.0407e-5,"MEAN_MOTION_DOT":3.7e-7,"MEAN_MOTION_DDOT":0},{"OBJECT_NAME":"ONEWEB-0410","OBJECT_ID":"2022-012A","EPOCH":"2026-02-15T22:44:00.253824","MEAN_MOTION":13.17648367,"ECCENTRICITY":0.0002807,"INCLINATION":87.9123,"RA_OF_ASC_NODE":29.9277,"ARG_OF_PERICENTER":58.767,"MEAN_ANOMALY":301.3736,"EPHEMERIS_TYPE":0,"CLASSIFICATION_TYPE":"U","NORAD_CAT_ID":51622,"ELEMENT_SET_NO":999,"REV_AT_EPOCH":19773,"BSTAR":6.7762e-5,"MEAN_MOTION_DOT":3.9e-7,"MEAN_MOTION_DDOT":0},{"OBJECT_NAME":"ONEWEB-0411","OBJECT_ID":"2022-012B","EPOCH":"2026-02-16T01:30:18.320256","MEAN_MOTION":13.10372896,"ECCENTRICITY":0.00021937,"INCLINATION":87.875,"RA_OF_ASC_NODE":60.393,"ARG_OF_PERICENTER":104.0504,"MEAN_ANOMALY":256.0867,"EPHEMERIS_TYPE":0,"CLASSIFICATION_TYPE":"U","NORAD_CAT_ID":51623,"ELEMENT_SET_NO":999,"REV_AT_EPOCH":19342,"BSTAR":-0.001798991,"MEAN_MOTION_DOT":-6.15e-6,"MEAN_MOTION_DDOT":0},{"OBJECT_NAME":"ONEWEB-0415","OBJECT_ID":"2022-012C","EPOCH":"2026-02-16T01:25:31.208736","MEAN_MOTION":13.10371868,"ECCENTRICITY":0.00020735,"INCLINATION":87.875,"RA_OF_ASC_NODE":60.3968,"ARG_OF_PERICENTER":97.4387,"MEAN_ANOMALY":262.6976,"EPHEMERIS_TYPE":0,"CLASSIFICATION_TYPE":"U","NORAD_CAT_ID":51624,"ELEMENT_SET_NO":999,"REV_AT_EPOCH":19342,"BSTAR":-0.0018870488,"MEAN_MOTION_DOT":-6.46e-6,"MEAN_MOTION_DDOT":0},{"OBJECT_NAME":"ONEWEB-0416","OBJECT_ID":"2022-012D","EPOCH":"2026-02-16T01:42:15.675264","MEAN_MOTION":13.10374438,"ECCENTRICITY":0.00023405,"INCLINATION":87.8756,"RA_OF_ASC_NODE":60.415,"ARG_OF_PERICENTER":92.818,"MEAN_ANOMALY":267.3215,"EPHEMERIS_TYPE":0,"CLASSIFICATION_TYPE":"U","NORAD_CAT_ID":51625,"ELEMENT_SET_NO":999,"REV_AT_EPOCH":19346,"BSTAR":-0.0012096207,"MEAN_MOTION_DOT":-4.1e-6,"MEAN_MOTION_DDOT":0},{"OBJECT_NAME":"ONEWEB-0422","OBJECT_ID":"2022-012E","EPOCH":"2026-02-15T22:58:33.650688","MEAN_MOTION":13.17647843,"ECCENTRICITY":0.0001374,"INCLINATION":87.9122,"RA_OF_ASC_NODE":29.9279,"ARG_OF_PERICENTER":106.8823,"MEAN_ANOMALY":253.2459,"EPHEMERIS_TYPE":0,"CLASSIFICATION_TYPE":"U","NORAD_CAT_ID":51626,"ELEMENT_SET_NO":999,"REV_AT_EPOCH":19784,"BSTAR":0.0002057,"MEAN_MOTION_DOT":9.3e-7,"MEAN_MOTION_DDOT":0},{"OBJECT_NAME":"ONEWEB-0423","OBJECT_ID":"2022-012F","EPOCH":"2026-02-15T22:48:50.923296","MEAN_MOTION":13.17649392,"ECCENTRICITY":0.000178,"INCLINATION":87.9123,"RA_OF_ASC_NODE":29.9392,"ARG_OF_PERICENTER":84.9255,"MEAN_ANOMALY":275.208,"EPHEMERIS_TYPE":0,"CLASSIFICATION_TYPE":"U","NORAD_CAT_ID":51627,"ELEMENT_SET_NO":999,"REV_AT_EPOCH":19773,"BSTAR":0.00011438,"MEAN_MOTION_DOT":5.7e-7,"MEAN_MOTION_DDOT":0},{"OBJECT_NAME":"ONEWEB-0425","OBJECT_ID":"2022-012G","EPOCH":"2026-02-16T01:56:37.268160","MEAN_MOTION":13.10375323,"ECCENTRICITY":0.00019604,"INCLINATION":87.8762,"RA_OF_ASC_NODE":60.3888,"ARG_OF_PERICENTER":80.3069,"MEAN_ANOMALY":279.828,"EPHEMERIS_TYPE":0,"CLASSIFICATION_TYPE":"U","NORAD_CAT_ID":51628,"ELEMENT_SET_NO":999,"REV_AT_EPOCH":19346,"BSTAR":0.00014901246,"MEAN_MOTION_DOT":6.5e-7,"MEAN_MOTION_DDOT":0},{"OBJECT_NAME":"ONEWEB-0428","OBJECT_ID":"2022-012H","EPOCH":"2026-02-16T01:27:54.599040","MEAN_MOTION":13.10372476,"ECCENTRICITY":0.00018551,"INCLINATION":87.8752,"RA_OF_ASC_NODE":60.408,"ARG_OF_PERICENTER":91.4712,"MEAN_ANOMALY":268.6628,"EPHEMERIS_TYPE":0,"CLASSIFICATION_TYPE":"U","NORAD_CAT_ID":51629,"ELEMENT_SET_NO":999,"REV_AT_EPOCH":19342,"BSTAR":-0.0015911865,"MEAN_MOTION_DOT":-5.43e-6,"MEAN_MOTION_DDOT":0}]
